[{"OBJECT_NAME":"STARLINK-3333","OBJECT_ID":"2022-001C","EPOCH":"2026-03-09T22:48:18.143136","MEAN_MOTION":15.0885751,"ECCENTRICITY":0.00014366,"INCLINATION":53.2186,"RA_OF_ASC_NODE":157.9555,"ARG_OF_PERICENTER":99.8496,"MEAN_ANOMALY":260.2658,"EPHEMERIS_TYPE":0,"CLASSIFICATION_TYPE":"U","NORAD_CAT_ID":50805,"ELEMENT_SET_NO":999,"REV_AT_EPOCH":23058,"BSTAR":-0.00034958927,"MEAN_MOTION_DOT":-5.85e-5,"MEAN_MOTION_DDOT":0},{"OBJECT_NAME":"TITAN 3C TRANSTAGE DEB","OBJECT_ID":"1965-082PP","EPOCH":"2026-03-08T23:49:16.681152","MEAN_MOTION":15.10619215,"ECCENTRICITY":0.0014169,"INCLINATION":32.2612,"RA_OF_ASC_NODE":312.9247,"ARG_OF_PERICENTER":37.7873,"MEAN_ANOMALY":322.3781,"EPHEMERIS_TYPE":0,"CLASSIFICATION_TYPE":"U","NORAD_CAT_ID":3454,"ELEMENT_SET_NO":999,"REV_AT_EPOCH":23071,"BSTAR":0.00075143557,"MEAN_MOTION_DOT":0.00012814,"MEAN_MOTION_DDOT":0}]
